{
    "links": {
        "self": "http://www.neowsapp.com/rest/v1/neo/3869350?api_key=iIulBulltgU6a56xZRHN4H3l9WmuAYTsLGpBGhQ2"
    },
    "id": "3869350",
    "neo_reference_id": "3869350",
    "name": "(2019 SZ6)",
    "designation": "2019 SZ6",
    "nasa_jpl_url": "http://ssd.jpl.nasa.gov/sbdb.cgi?sstr=3869350",
    "absolute_magnitude_h": 22.2,
    "estimated_diameter": {
        "kilometers": {
            "estimated_diameter_min": 0.096506147,
            "estimated_diameter_max": 0.2157943048
        },
        "meters": {
            "estimated_diameter_min": 96.5061469579,
            "estimated_diameter_max": 215.7943048444
        },
        "miles": {
            "estimated_diameter_min": 0.059966121,
            "estimated_diameter_max": 0.134088323
        },
        "feet": {
            "estimated_diameter_min": 316.6212271853,
            "estimated_diameter_max": 707.9865871058
        }
    },
    "is_potentially_hazardous_asteroid": false,
    "close_approach_data": [
        {
            "close_approach_date": "2019-09-17",
            "close_approach_date_full": "2019-Sep-17 17:08",
            "epoch_date_close_approach": 1568740080000,
            "relative_velocity": {
                "kilometers_per_second": "25.0062333857",
                "kilometers_per_hour": "90022.4401884347",
                "miles_per_hour": "55936.4434604193"
            },
            "miss_distance": {
                "astronomical": "0.1379024878",
                "lunar": "53.6440677542",
                "kilometers": "20629918.442580986",
                "miles": "12818836.9028541668"
            },
            "orbiting_body": "Earth"
        }
    ],
    "orbital_data": {
        "orbit_id": "4",
        "orbit_determination_date": "2019-10-20 06:04:45",
        "first_observation_date": "2019-09-28",
        "last_observation_date": "2019-10-07",
        "data_arc_in_days": 9,
        "observations_used": 42,
        "orbit_uncertainty": "9",
        "minimum_orbit_intersection": ".112399",
        "jupiter_tisserand_invariant": "4.943",
        "epoch_osculation": "2458755.5",
        "eccentricity": ".7829348616813167",
        "semi_major_axis": "1.19299051884726",
        "inclination": "12.55914984696747",
        "ascending_node_longitude": "206.8934857168391",
        "orbital_period": "475.9418727422583",
        "perihelion_distance": ".2589566519864584",
        "perihelion_argument": "15.28392877340251",
        "aphelion_distance": "2.127024385708062",
        "perihelion_time": "2458695.641331176154",
        "mean_anomaly": "45.27679116028162",
        "mean_motion": ".7563948889929978",
        "equinox": "J2000",
        "orbit_class": {
            "orbit_class_type": "APO",
            "orbit_class_description": "Near-Earth asteroid orbits which cross the Earth’s orbit similar to that of 1862 Apollo",
            "orbit_class_range": "a (semi-major axis) > 1.0 AU; q (perihelion) < 1.017 AU"
        }
    },
    "is_sentry_object": false
}